GLOBALSTAR M067         
1 32263U 07048A   24264.94798653 -.00000063  00000+0  25255-3 0  9995
2 32263  51.9709 103.7382 0001647 105.3607  42.2964 12.40655334776069
GLOBALSTAR M070         
1 32264U 07048B   24264.90974265 -.00000075  00000+0  16246-3 0  9990
2 32264  51.9731 228.8216 0000181  69.1878 309.2528 12.62300612779660
GLOBALSTAR M066         
1 32265U 07048C   24264.96192625 -.00000086  00000+0  97882-4 0  9997
2 32265  51.9662  92.6783 0001271  20.6756 144.3808 12.53546121782837
GLOBALSTAR M068         
1 32266U 07048D   24264.82463981 -.00000119  00000+0 -85099-4 0  9994
2 32266  51.9899  43.3480 0000281 213.2170 298.7602 12.62800261783528
GLOBALSTAR M079         
1 37188U 10054A   24264.94682312 -.00000088  00000+0  90240-4 0  9995
2 37188  52.0020 239.3984 0000660  61.8031 338.4306 12.62264315642457
GLOBALSTAR M074         
1 37189U 10054B   24265.22479147 -.00000097  00000+0  38493-4 0  9990
2 37189  51.9998 237.9119 0000430  77.3170  29.1858 12.62289237643160
GLOBALSTAR M076         
1 37190U 10054C   24265.23197755 -.00000080  00000+0  13450-3 0  9992
2 37190  52.0013 238.0440 0000731  92.0724 282.5020 12.62270278643176
GLOBALSTAR M077         
1 37191U 10054D   24264.54016343 -.00000078  00000+0  14479-3 0  9998
2 37191  52.0058 196.9257 0000563  64.7597 106.2270 12.62263872643093
